{"type":"FeatureCollection","name":"nagoya-flood-zones","crs":"EPSG:4326","description":"Synthetic offline flood inundation fixture approximating 重ねるハザードマップ depth-band corridors over Nagoya. Not survey data.","reference_sources":["https://disaportaldata.gsi.go.jp/raster/01_flood_l2_shinsuishin_Kuni_data/","https://nlftp.mlit.go.jp/ksj/gml/datalist/KsjTmplt-A32.html"],"depth_bands_m":[0.5,3.0,5.0],"features":[{"type":"Feature","properties":{"zone_id":"shonai-river-lower","name":"庄内川下流域（想定最大規模）","depth_class_m":5.0,"assumed_scale":"想定最大規模"},"geometry":{"type":"Polygon","coordinates":[[[136.91050533375187,35.2126143553742],[136.8975708601453,35.18277165594188],[136.8857974096376,35.15345402409664],[136.87791836354302,35.12401360607616],[136.87286305818353,35.093725422134014],[136.85613694181646,35.07327457786599],[136.86786305818353,35.07072542213402],[136.86113694181645,35.096274577865984],[136.866081636457,35.12598639392384],[136.8742025903624,35.15654597590336],[136.8864291398547,35.18722834405813],[136.89949466624813,35.21738564462581],[136.91050533375187,35.2126143553742]]]}},{"type":"Feature","properties":{"zone_id":"shinkawa","name":"新川流域（想定最大規模）","depth_class_m":3.0,"assumed_scale":"想定最大規模"},"geometry":{"type":"Polygon","coordinates":[[[136.933577708764,35.188211145618],[136.91867022250122,35.15840957024946],[136.90589536483895,35.12909108153758],[136.89877543342547,35.09867859830109],[136.88422456657455,35.08132140169891],[136.89177543342547,35.07867859830109],[136.89122456657455,35.10132140169891],[136.89810463516102,35.130908918462424],[136.91132977749876,35.16159042975053],[136.926422291236,35.191788854382],[136.933577708764,35.188211145618]]]}},{"type":"Feature","properties":{"zone_id":"tempaku-river","name":"天白川流域（想定最大規模）","depth_class_m":3.0,"assumed_scale":"想定最大規模"},"geometry":{"type":"Polygon","coordinates":[[[136.9683203915432,35.14889320281894],[136.9583203915432,35.11889320281894],[136.948370374069,35.08905629526068],[136.9411668654577,35.06350971037285],[136.9268331345423,35.04949028962715],[136.9331668654577,35.04650971037285],[136.9348331345423,35.06649028962715],[136.941629625931,35.090943704739324],[136.95167960845683,35.121106797181056],[136.96167960845682,35.15110679718106],[136.9683203915432,35.14889320281894]]]}},{"type":"Feature","properties":{"zone_id":"yamazaki-river","name":"山崎川・戸田川流域（計画規模）","depth_class_m":0.5,"assumed_scale":"計画規模"},"geometry":{"type":"Polygon","coordinates":[[[136.96250439613482,35.123747801932595],[136.9525043961348,35.1037478019326],[136.94234530967114,35.08347045021447],[136.92265469032887,35.06352954978553],[136.92734530967115,35.06047045021447],[136.93765469032886,35.08652954978553],[136.94749560386518,35.106252198067395],[136.9574956038652,35.126252198067405],[136.96250439613482,35.123747801932595]]]}},{"type":"Feature","properties":{"zone_id":"minato-coastal","name":"港区沿岸低地（高潮・内水氾濫）","depth_class_m":0.5,"assumed_scale":"計画規模"},"geometry":{"type":"Polygon","coordinates":[[[136.848,35.115],[136.862,35.118],[136.866,35.095],[136.864,35.07],[136.852,35.052],[136.842,35.06],[136.844,35.09],[136.848,35.115]]]}},{"type":"Feature","properties":{"zone_id":"nakagawa-inland","name":"中川区内地（内水氾濫）","depth_class_m":0.5,"assumed_scale":"計画規模"},"geometry":{"type":"Polygon","coordinates":[[[136.878,35.14],[136.895,35.142],[136.9,35.122],[136.894,35.105],[136.882,35.108],[136.876,35.126],[136.878,35.14]]]}}]}