{"type":"FeatureCollection","name":"nagoya-shelters","crs":"EPSG:4326","description":"Synthetic designated evacuation shelters (2 per ward), placed outside bundled flood zones. Generated by scripts/build-nagoya-shelters.py; not GSI survey data.","features":[{"type":"Feature","properties":{"shelter_id":"shelter-001","name":"中区指定避難所1","ward_name":"中区","kind":"designated_evacuation_shelter","capacity":4200},"geometry":{"type":"Point","coordinates":[136.91288,35.166446]}},{"type":"Feature","properties":{"shelter_id":"shelter-002","name":"中区指定避難所2","ward_name":"中区","kind":"designated_evacuation_shelter","capacity":4200},"geometry":{"type":"Point","coordinates":[136.90728,35.162446]}},{"type":"Feature","properties":{"shelter_id":"shelter-003","name":"中川区指定避難所1","ward_name":"中川区","kind":"designated_evacuation_shelter","capacity":3000},"geometry":{"type":"Point","coordinates":[136.842135,35.142702]}},{"type":"Feature","properties":{"shelter_id":"shelter-004","name":"中川区指定避難所2","ward_name":"中川区","kind":"designated_evacuation_shelter","capacity":3000},"geometry":{"type":"Point","coordinates":[136.836535,35.138702]}},{"type":"Feature","properties":{"shelter_id":"shelter-005","name":"中村区指定避難所1","ward_name":"中村区","kind":"designated_evacuation_shelter","capacity":2800},"geometry":{"type":"Point","coordinates":[136.863888,35.164675]}},{"type":"Feature","properties":{"shelter_id":"shelter-006","name":"中村区指定避難所2","ward_name":"中村区","kind":"designated_evacuation_shelter","capacity":2800},"geometry":{"type":"Point","coordinates":[136.858288,35.160675]}},{"type":"Feature","properties":{"shelter_id":"shelter-007","name":"北区指定避難所1","ward_name":"北区","kind":"designated_evacuation_shelter","capacity":2200},"geometry":{"type":"Point","coordinates":[136.921977,35.217709]}},{"type":"Feature","properties":{"shelter_id":"shelter-008","name":"北区指定避難所2","ward_name":"北区","kind":"designated_evacuation_shelter","capacity":2200},"geometry":{"type":"Point","coordinates":[136.916377,35.213709]}},{"type":"Feature","properties":{"shelter_id":"shelter-009","name":"千種区指定避難所1","ward_name":"千種区","kind":"designated_evacuation_shelter","capacity":2600},"geometry":{"type":"Point","coordinates":[136.966391,35.169188]}},{"type":"Feature","properties":{"shelter_id":"shelter-010","name":"千種区指定避難所2","ward_name":"千種区","kind":"designated_evacuation_shelter","capacity":2600},"geometry":{"type":"Point","coordinates":[136.960791,35.165188]}},{"type":"Feature","properties":{"shelter_id":"shelter-011","name":"南区指定避難所1","ward_name":"南区","kind":"designated_evacuation_shelter","capacity":2600},"geometry":{"type":"Point","coordinates":[136.92418,35.09892]}},{"type":"Feature","properties":{"shelter_id":"shelter-012","name":"南区指定避難所2","ward_name":"南区","kind":"designated_evacuation_shelter","capacity":2600},"geometry":{"type":"Point","coordinates":[136.91858,35.09492]}},{"type":"Feature","properties":{"shelter_id":"shelter-013","name":"名東区指定避難所1","ward_name":"名東区","kind":"designated_evacuation_shelter","capacity":2400},"geometry":{"type":"Point","coordinates":[137.009527,35.165055]}},{"type":"Feature","properties":{"shelter_id":"shelter-014","name":"名東区指定避難所2","ward_name":"名東区","kind":"designated_evacuation_shelter","capacity":2400},"geometry":{"type":"Point","coordinates":[137.003927,35.161055]}},{"type":"Feature","properties":{"shelter_id":"shelter-015","name":"天白区指定避難所1","ward_name":"天白区","kind":"designated_evacuation_shelter","capacity":2900},"geometry":{"type":"Point","coordinates":[136.990842,35.124464]}},{"type":"Feature","properties":{"shelter_id":"shelter-016","name":"天白区指定避難所2","ward_name":"天白区","kind":"designated_evacuation_shelter","capacity":2900},"geometry":{"type":"Point","coordinates":[136.985242,35.120464]}},{"type":"Feature","properties":{"shelter_id":"shelter-017","name":"守山区指定避難所1","ward_name":"守山区","kind":"designated_evacuation_shelter","capacity":2500},"geometry":{"type":"Point","coordinates":[137.011323,35.219461]}},{"type":"Feature","properties":{"shelter_id":"shelter-018","name":"守山区指定避難所2","ward_name":"守山区","kind":"designated_evacuation_shelter","capacity":2500},"geometry":{"type":"Point","coordinates":[137.005723,35.215461]}},{"type":"Feature","properties":{"shelter_id":"shelter-019","name":"昭和区指定避難所1","ward_name":"昭和区","kind":"designated_evacuation_shelter","capacity":2400},"geometry":{"type":"Point","coordinates":[136.947652,35.149687]}},{"type":"Feature","properties":{"shelter_id":"shelter-020","name":"昭和区指定避難所2","ward_name":"昭和区","kind":"designated_evacuation_shelter","capacity":2400},"geometry":{"type":"Point","coordinates":[136.942052,35.145687]}},{"type":"Feature","properties":{"shelter_id":"shelter-021","name":"東区指定避難所1","ward_name":"東区","kind":"designated_evacuation_shelter","capacity":2600},"geometry":{"type":"Point","coordinates":[136.934213,35.184755]}},{"type":"Feature","properties":{"shelter_id":"shelter-022","name":"東区指定避難所2","ward_name":"東区","kind":"designated_evacuation_shelter","capacity":2600},"geometry":{"type":"Point","coordinates":[136.931113,35.180755]}},{"type":"Feature","properties":{"shelter_id":"shelter-023","name":"港区指定避難所1","ward_name":"港区","kind":"designated_evacuation_shelter","capacity":3200},"geometry":{"type":"Point","coordinates":[136.869424,35.087106]}},{"type":"Feature","properties":{"shelter_id":"shelter-024","name":"港区指定避難所2","ward_name":"港区","kind":"designated_evacuation_shelter","capacity":3200},"geometry":{"type":"Point","coordinates":[136.867824,35.083106]}},{"type":"Feature","properties":{"shelter_id":"shelter-025","name":"熱田区指定避難所1","ward_name":"熱田区","kind":"designated_evacuation_shelter","capacity":2100},"geometry":{"type":"Point","coordinates":[136.897918,35.131743]}},{"type":"Feature","properties":{"shelter_id":"shelter-026","name":"熱田区指定避難所2","ward_name":"熱田区","kind":"designated_evacuation_shelter","capacity":2100},"geometry":{"type":"Point","coordinates":[136.897818,35.13164]}},{"type":"Feature","properties":{"shelter_id":"shelter-027","name":"瑞穂区指定避難所1","ward_name":"瑞穂区","kind":"designated_evacuation_shelter","capacity":2300},"geometry":{"type":"Point","coordinates":[136.941577,35.127357]}},{"type":"Feature","properties":{"shelter_id":"shelter-028","name":"瑞穂区指定避難所2","ward_name":"瑞穂区","kind":"designated_evacuation_shelter","capacity":2300},"geometry":{"type":"Point","coordinates":[136.935977,35.123357]}},{"type":"Feature","properties":{"shelter_id":"shelter-029","name":"緑区指定避難所1","ward_name":"緑区","kind":"designated_evacuation_shelter","capacity":3400},"geometry":{"type":"Point","coordinates":[136.974076,35.076315]}},{"type":"Feature","properties":{"shelter_id":"shelter-030","name":"緑区指定避難所2","ward_name":"緑区","kind":"designated_evacuation_shelter","capacity":3400},"geometry":{"type":"Point","coordinates":[136.968476,35.072315]}},{"type":"Feature","properties":{"shelter_id":"shelter-031","name":"西区指定避難所1","ward_name":"西区","kind":"designated_evacuation_shelter","capacity":2400},"geometry":{"type":"Point","coordinates":[136.884467,35.209696]}},{"type":"Feature","properties":{"shelter_id":"shelter-032","name":"西区指定避難所2","ward_name":"西区","kind":"designated_evacuation_shelter","capacity":2400},"geometry":{"type":"Point","coordinates":[136.878867,35.205696]}}]}