{"type":"FeatureCollection","name":"nagoya-transit","crs":"EPSG:4326","description":"SYNTHETIC deterministic transit corridors over the Nagoya walk grid (rail mode, ~2 min between stops). NOT real MLIT N02/N07 data; use scripts/fetch-mlit-transit.py for the licensed real corridors.","features":[{"type":"Feature","properties":{"line":"meitetsu-nagoya-main","mode":"rail","wait_minutes":6.0,"ride_minutes":2.0},"geometry":{"type":"LineString","coordinates":[[136.9022,35.1436],[136.8815,35.1707],[136.9058,35.1764],[136.9308,35.1702],[136.9454,35.1696]]}},{"type":"Feature","properties":{"line":"meijo-line","mode":"rail","wait_minutes":6.0,"ride_minutes":2.0},"geometry":{"type":"LineString","coordinates":[[136.8815,35.1707],[136.9104,35.1192]]}},{"type":"Feature","properties":{"line":"hokusei-line","mode":"rail","wait_minutes":6.0,"ride_minutes":2.0},"geometry":{"type":"LineString","coordinates":[[136.8815,35.1707],[136.9218,35.1968]]}},{"type":"Feature","properties":{"kind":"stop","id":"kanayama","lines":"meitetsu-nagoya-main"},"geometry":{"type":"Point","coordinates":[136.9022,35.1436]}},{"type":"Feature","properties":{"kind":"stop","id":"nagoya-station","lines":"meitetsu-nagoya-main,meijo-line,hokusei-line"},"geometry":{"type":"Point","coordinates":[136.8815,35.1707]}},{"type":"Feature","properties":{"kind":"stop","id":"jyoshi","lines":"meitetsu-nagoya-main"},"geometry":{"type":"Point","coordinates":[136.9058,35.1764]}},{"type":"Feature","properties":{"kind":"stop","id":"chikusa","lines":"meitetsu-nagoya-main"},"geometry":{"type":"Point","coordinates":[136.9308,35.1702]}},{"type":"Feature","properties":{"kind":"stop","id":"ikeshita","lines":"meitetsu-nagoya-main"},"geometry":{"type":"Point","coordinates":[136.9454,35.1696]}},{"type":"Feature","properties":{"kind":"stop","id":"atsuta","lines":"meijo-line"},"geometry":{"type":"Point","coordinates":[136.9104,35.1192]}},{"type":"Feature","properties":{"kind":"stop","id":"ozone","lines":"hokusei-line"},"geometry":{"type":"Point","coordinates":[136.9218,35.1968]}}]}