{"type":"FeatureCollection","name":"nagoya-pois","crs":"EPSG:4326","description":"Deterministic synthetic POIs near ward centroids for the 15-minute-city demo.","categories":["supermarket","clinic","school","park"],"features":[{"type":"Feature","properties":{"poi_id":"poi-001","category":"supermarket","ward_name":"中区","capacity":1},"geometry":{"type":"Point","coordinates":[136.90988,35.164246]}},{"type":"Feature","properties":{"poi_id":"poi-002","category":"clinic","ward_name":"中区","capacity":1},"geometry":{"type":"Point","coordinates":[136.91248,35.165346]}},{"type":"Feature","properties":{"poi_id":"poi-003","category":"school","ward_name":"中区","capacity":1},"geometry":{"type":"Point","coordinates":[136.90898,35.166146]}},{"type":"Feature","properties":{"poi_id":"poi-004","category":"park","ward_name":"中区","capacity":1},"geometry":{"type":"Point","coordinates":[136.91228,35.162146]}},{"type":"Feature","properties":{"poi_id":"poi-005","category":"supermarket","ward_name":"中区","capacity":1},"geometry":{"type":"Point","coordinates":[136.90778,35.162496]}},{"type":"Feature","properties":{"poi_id":"poi-006","category":"clinic","ward_name":"中区","capacity":1},"geometry":{"type":"Point","coordinates":[136.91208,35.166196]}},{"type":"Feature","properties":{"poi_id":"poi-007","category":"school","ward_name":"中区","capacity":1},"geometry":{"type":"Point","coordinates":[136.90938,35.165596]}},{"type":"Feature","properties":{"poi_id":"poi-008","category":"park","ward_name":"中区","capacity":1},"geometry":{"type":"Point","coordinates":[136.91358,35.162996]}},{"type":"Feature","properties":{"poi_id":"poi-009","category":"supermarket","ward_name":"中区","capacity":1},"geometry":{"type":"Point","coordinates":[136.91048,35.166146]}},{"type":"Feature","properties":{"poi_id":"poi-010","category":"clinic","ward_name":"中区","capacity":1},"geometry":{"type":"Point","coordinates":[136.90768,35.164146]}},{"type":"Feature","properties":{"poi_id":"poi-011","category":"school","ward_name":"中区","capacity":1},"geometry":{"type":"Point","coordinates":[136.91378,35.165046]}},{"type":"Feature","properties":{"poi_id":"poi-012","category":"park","ward_name":"中区","capacity":1},"geometry":{"type":"Point","coordinates":[136.91018,35.160846]}},{"type":"Feature","properties":{"poi_id":"poi-013","category":"supermarket","ward_name":"中川区","capacity":1},"geometry":{"type":"Point","coordinates":[136.839135,35.140502]}},{"type":"Feature","properties":{"poi_id":"poi-014","category":"clinic","ward_name":"中川区","capacity":1},"geometry":{"type":"Point","coordinates":[136.841735,35.141602]}},{"type":"Feature","properties":{"poi_id":"poi-015","category":"school","ward_name":"中川区","capacity":1},"geometry":{"type":"Point","coordinates":[136.838235,35.142402]}},{"type":"Feature","properties":{"poi_id":"poi-016","category":"park","ward_name":"中川区","capacity":1},"geometry":{"type":"Point","coordinates":[136.841535,35.138402]}},{"type":"Feature","properties":{"poi_id":"poi-017","category":"supermarket","ward_name":"中村区","capacity":1},"geometry":{"type":"Point","coordinates":[136.860888,35.162475]}},{"type":"Feature","properties":{"poi_id":"poi-018","category":"clinic","ward_name":"中村区","capacity":1},"geometry":{"type":"Point","coordinates":[136.863488,35.163575]}},{"type":"Feature","properties":{"poi_id":"poi-019","category":"school","ward_name":"中村区","capacity":1},"geometry":{"type":"Point","coordinates":[136.859988,35.164375]}},{"type":"Feature","properties":{"poi_id":"poi-020","category":"park","ward_name":"中村区","capacity":1},"geometry":{"type":"Point","coordinates":[136.863288,35.160375]}},{"type":"Feature","properties":{"poi_id":"poi-021","category":"supermarket","ward_name":"中村区","capacity":1},"geometry":{"type":"Point","coordinates":[136.858788,35.160725]}},{"type":"Feature","properties":{"poi_id":"poi-022","category":"clinic","ward_name":"中村区","capacity":1},"geometry":{"type":"Point","coordinates":[136.863088,35.164425]}},{"type":"Feature","properties":{"poi_id":"poi-023","category":"supermarket","ward_name":"北区","capacity":1},"geometry":{"type":"Point","coordinates":[136.918977,35.215509]}},{"type":"Feature","properties":{"poi_id":"poi-024","category":"clinic","ward_name":"北区","capacity":1},"geometry":{"type":"Point","coordinates":[136.921577,35.216609]}},{"type":"Feature","properties":{"poi_id":"poi-025","category":"school","ward_name":"北区","capacity":1},"geometry":{"type":"Point","coordinates":[136.918077,35.217409]}},{"type":"Feature","properties":{"poi_id":"poi-026","category":"park","ward_name":"北区","capacity":1},"geometry":{"type":"Point","coordinates":[136.921377,35.213409]}},{"type":"Feature","properties":{"poi_id":"poi-027","category":"supermarket","ward_name":"北区","capacity":1},"geometry":{"type":"Point","coordinates":[136.916877,35.213759]}},{"type":"Feature","properties":{"poi_id":"poi-028","category":"clinic","ward_name":"北区","capacity":1},"geometry":{"type":"Point","coordinates":[136.921177,35.217459]}},{"type":"Feature","properties":{"poi_id":"poi-029","category":"supermarket","ward_name":"千種区","capacity":1},"geometry":{"type":"Point","coordinates":[136.963391,35.166988]}},{"type":"Feature","properties":{"poi_id":"poi-030","category":"clinic","ward_name":"千種区","capacity":1},"geometry":{"type":"Point","coordinates":[136.965991,35.168088]}},{"type":"Feature","properties":{"poi_id":"poi-031","category":"school","ward_name":"千種区","capacity":1},"geometry":{"type":"Point","coordinates":[136.962491,35.168888]}},{"type":"Feature","properties":{"poi_id":"poi-032","category":"park","ward_name":"千種区","capacity":1},"geometry":{"type":"Point","coordinates":[136.965791,35.164888]}},{"type":"Feature","properties":{"poi_id":"poi-033","category":"supermarket","ward_name":"千種区","capacity":1},"geometry":{"type":"Point","coordinates":[136.961291,35.165238]}},{"type":"Feature","properties":{"poi_id":"poi-034","category":"clinic","ward_name":"千種区","capacity":1},"geometry":{"type":"Point","coordinates":[136.965591,35.168938]}},{"type":"Feature","properties":{"poi_id":"poi-035","category":"supermarket","ward_name":"南区","capacity":1},"geometry":{"type":"Point","coordinates":[136.92118,35.09672]}},{"type":"Feature","properties":{"poi_id":"poi-036","category":"clinic","ward_name":"南区","capacity":1},"geometry":{"type":"Point","coordinates":[136.92378,35.09782]}},{"type":"Feature","properties":{"poi_id":"poi-037","category":"school","ward_name":"南区","capacity":1},"geometry":{"type":"Point","coordinates":[136.92028,35.09862]}},{"type":"Feature","properties":{"poi_id":"poi-038","category":"park","ward_name":"南区","capacity":1},"geometry":{"type":"Point","coordinates":[136.92358,35.09462]}},{"type":"Feature","properties":{"poi_id":"poi-039","category":"supermarket","ward_name":"名東区","capacity":1},"geometry":{"type":"Point","coordinates":[137.006527,35.162855]}},{"type":"Feature","properties":{"poi_id":"poi-040","category":"clinic","ward_name":"名東区","capacity":1},"geometry":{"type":"Point","coordinates":[137.009127,35.163955]}},{"type":"Feature","properties":{"poi_id":"poi-041","category":"school","ward_name":"名東区","capacity":1},"geometry":{"type":"Point","coordinates":[137.005627,35.164755]}},{"type":"Feature","properties":{"poi_id":"poi-042","category":"park","ward_name":"名東区","capacity":1},"geometry":{"type":"Point","coordinates":[137.008927,35.160755]}},{"type":"Feature","properties":{"poi_id":"poi-043","category":"supermarket","ward_name":"天白区","capacity":1},"geometry":{"type":"Point","coordinates":[136.987842,35.122264]}},{"type":"Feature","properties":{"poi_id":"poi-044","category":"clinic","ward_name":"天白区","capacity":1},"geometry":{"type":"Point","coordinates":[136.990442,35.123364]}},{"type":"Feature","properties":{"poi_id":"poi-045","category":"school","ward_name":"天白区","capacity":1},"geometry":{"type":"Point","coordinates":[136.986942,35.124164]}},{"type":"Feature","properties":{"poi_id":"poi-046","category":"park","ward_name":"天白区","capacity":1},"geometry":{"type":"Point","coordinates":[136.990242,35.120164]}},{"type":"Feature","properties":{"poi_id":"poi-047","category":"supermarket","ward_name":"守山区","capacity":1},"geometry":{"type":"Point","coordinates":[137.008323,35.217261]}},{"type":"Feature","properties":{"poi_id":"poi-048","category":"clinic","ward_name":"守山区","capacity":1},"geometry":{"type":"Point","coordinates":[137.010923,35.218361]}},{"type":"Feature","properties":{"poi_id":"poi-049","category":"school","ward_name":"守山区","capacity":1},"geometry":{"type":"Point","coordinates":[137.007423,35.219161]}},{"type":"Feature","properties":{"poi_id":"poi-050","category":"park","ward_name":"守山区","capacity":1},"geometry":{"type":"Point","coordinates":[137.010723,35.215161]}},{"type":"Feature","properties":{"poi_id":"poi-051","category":"supermarket","ward_name":"昭和区","capacity":1},"geometry":{"type":"Point","coordinates":[136.944652,35.147487]}},{"type":"Feature","properties":{"poi_id":"poi-052","category":"clinic","ward_name":"昭和区","capacity":1},"geometry":{"type":"Point","coordinates":[136.947252,35.148587]}},{"type":"Feature","properties":{"poi_id":"poi-053","category":"school","ward_name":"昭和区","capacity":1},"geometry":{"type":"Point","coordinates":[136.943752,35.149387]}},{"type":"Feature","properties":{"poi_id":"poi-054","category":"park","ward_name":"昭和区","capacity":1},"geometry":{"type":"Point","coordinates":[136.947052,35.145387]}},{"type":"Feature","properties":{"poi_id":"poi-055","category":"supermarket","ward_name":"昭和区","capacity":1},"geometry":{"type":"Point","coordinates":[136.942552,35.145737]}},{"type":"Feature","properties":{"poi_id":"poi-056","category":"clinic","ward_name":"昭和区","capacity":1},"geometry":{"type":"Point","coordinates":[136.946852,35.149437]}},{"type":"Feature","properties":{"poi_id":"poi-057","category":"school","ward_name":"昭和区","capacity":1},"geometry":{"type":"Point","coordinates":[136.944152,35.148837]}},{"type":"Feature","properties":{"poi_id":"poi-058","category":"park","ward_name":"昭和区","capacity":1},"geometry":{"type":"Point","coordinates":[136.948352,35.146237]}},{"type":"Feature","properties":{"poi_id":"poi-059","category":"supermarket","ward_name":"昭和区","capacity":1},"geometry":{"type":"Point","coordinates":[136.945252,35.149387]}},{"type":"Feature","properties":{"poi_id":"poi-060","category":"clinic","ward_name":"昭和区","capacity":1},"geometry":{"type":"Point","coordinates":[136.942452,35.147387]}},{"type":"Feature","properties":{"poi_id":"poi-061","category":"supermarket","ward_name":"東区","capacity":1},"geometry":{"type":"Point","coordinates":[136.931213,35.182555]}},{"type":"Feature","properties":{"poi_id":"poi-062","category":"clinic","ward_name":"東区","capacity":1},"geometry":{"type":"Point","coordinates":[136.933813,35.183655]}},{"type":"Feature","properties":{"poi_id":"poi-063","category":"school","ward_name":"東区","capacity":1},"geometry":{"type":"Point","coordinates":[136.930313,35.184455]}},{"type":"Feature","properties":{"poi_id":"poi-064","category":"park","ward_name":"東区","capacity":1},"geometry":{"type":"Point","coordinates":[136.933613,35.180455]}},{"type":"Feature","properties":{"poi_id":"poi-065","category":"supermarket","ward_name":"東区","capacity":1},"geometry":{"type":"Point","coordinates":[136.929113,35.180805]}},{"type":"Feature","properties":{"poi_id":"poi-066","category":"clinic","ward_name":"東区","capacity":1},"geometry":{"type":"Point","coordinates":[136.933413,35.184505]}},{"type":"Feature","properties":{"poi_id":"poi-067","category":"school","ward_name":"東区","capacity":1},"geometry":{"type":"Point","coordinates":[136.930713,35.183905]}},{"type":"Feature","properties":{"poi_id":"poi-068","category":"park","ward_name":"東区","capacity":1},"geometry":{"type":"Point","coordinates":[136.934913,35.181305]}},{"type":"Feature","properties":{"poi_id":"poi-069","category":"supermarket","ward_name":"東区","capacity":1},"geometry":{"type":"Point","coordinates":[136.931813,35.184455]}},{"type":"Feature","properties":{"poi_id":"poi-070","category":"clinic","ward_name":"東区","capacity":1},"geometry":{"type":"Point","coordinates":[136.929013,35.182455]}},{"type":"Feature","properties":{"poi_id":"poi-071","category":"supermarket","ward_name":"港区","capacity":1},"geometry":{"type":"Point","coordinates":[136.860424,35.084906]}},{"type":"Feature","properties":{"poi_id":"poi-072","category":"clinic","ward_name":"港区","capacity":1},"geometry":{"type":"Point","coordinates":[136.863024,35.086006]}},{"type":"Feature","properties":{"poi_id":"poi-073","category":"school","ward_name":"港区","capacity":1},"geometry":{"type":"Point","coordinates":[136.859524,35.086806]}},{"type":"Feature","properties":{"poi_id":"poi-074","category":"park","ward_name":"港区","capacity":1},"geometry":{"type":"Point","coordinates":[136.862824,35.082806]}},{"type":"Feature","properties":{"poi_id":"poi-075","category":"supermarket","ward_name":"熱田区","capacity":1},"geometry":{"type":"Point","coordinates":[136.897418,35.129543]}},{"type":"Feature","properties":{"poi_id":"poi-076","category":"clinic","ward_name":"熱田区","capacity":1},"geometry":{"type":"Point","coordinates":[136.900018,35.130643]}},{"type":"Feature","properties":{"poi_id":"poi-077","category":"school","ward_name":"熱田区","capacity":1},"geometry":{"type":"Point","coordinates":[136.896518,35.131443]}},{"type":"Feature","properties":{"poi_id":"poi-078","category":"park","ward_name":"熱田区","capacity":1},"geometry":{"type":"Point","coordinates":[136.899818,35.127443]}},{"type":"Feature","properties":{"poi_id":"poi-079","category":"supermarket","ward_name":"熱田区","capacity":1},"geometry":{"type":"Point","coordinates":[136.895318,35.127793]}},{"type":"Feature","properties":{"poi_id":"poi-080","category":"clinic","ward_name":"熱田区","capacity":1},"geometry":{"type":"Point","coordinates":[136.899618,35.131493]}},{"type":"Feature","properties":{"poi_id":"poi-081","category":"school","ward_name":"熱田区","capacity":1},"geometry":{"type":"Point","coordinates":[136.896918,35.130893]}},{"type":"Feature","properties":{"poi_id":"poi-082","category":"park","ward_name":"熱田区","capacity":1},"geometry":{"type":"Point","coordinates":[136.901118,35.128293]}},{"type":"Feature","properties":{"poi_id":"poi-083","category":"supermarket","ward_name":"瑞穂区","capacity":1},"geometry":{"type":"Point","coordinates":[136.938577,35.125157]}},{"type":"Feature","properties":{"poi_id":"poi-084","category":"clinic","ward_name":"瑞穂区","capacity":1},"geometry":{"type":"Point","coordinates":[136.941177,35.126257]}},{"type":"Feature","properties":{"poi_id":"poi-085","category":"school","ward_name":"瑞穂区","capacity":1},"geometry":{"type":"Point","coordinates":[136.937677,35.127057]}},{"type":"Feature","properties":{"poi_id":"poi-086","category":"park","ward_name":"瑞穂区","capacity":1},"geometry":{"type":"Point","coordinates":[136.940977,35.123057]}},{"type":"Feature","properties":{"poi_id":"poi-087","category":"supermarket","ward_name":"瑞穂区","capacity":1},"geometry":{"type":"Point","coordinates":[136.936477,35.123407]}},{"type":"Feature","properties":{"poi_id":"poi-088","category":"clinic","ward_name":"瑞穂区","capacity":1},"geometry":{"type":"Point","coordinates":[136.940777,35.127107]}},{"type":"Feature","properties":{"poi_id":"poi-089","category":"school","ward_name":"瑞穂区","capacity":1},"geometry":{"type":"Point","coordinates":[136.938077,35.126507]}},{"type":"Feature","properties":{"poi_id":"poi-090","category":"park","ward_name":"瑞穂区","capacity":1},"geometry":{"type":"Point","coordinates":[136.942277,35.123907]}},{"type":"Feature","properties":{"poi_id":"poi-091","category":"supermarket","ward_name":"緑区","capacity":1},"geometry":{"type":"Point","coordinates":[136.971076,35.074115]}},{"type":"Feature","properties":{"poi_id":"poi-092","category":"clinic","ward_name":"緑区","capacity":1},"geometry":{"type":"Point","coordinates":[136.973676,35.075215]}},{"type":"Feature","properties":{"poi_id":"poi-093","category":"school","ward_name":"緑区","capacity":1},"geometry":{"type":"Point","coordinates":[136.970176,35.076015]}},{"type":"Feature","properties":{"poi_id":"poi-094","category":"park","ward_name":"緑区","capacity":1},"geometry":{"type":"Point","coordinates":[136.973476,35.072015]}},{"type":"Feature","properties":{"poi_id":"poi-095","category":"supermarket","ward_name":"西区","capacity":1},"geometry":{"type":"Point","coordinates":[136.881467,35.207496]}},{"type":"Feature","properties":{"poi_id":"poi-096","category":"clinic","ward_name":"西区","capacity":1},"geometry":{"type":"Point","coordinates":[136.884067,35.208596]}},{"type":"Feature","properties":{"poi_id":"poi-097","category":"school","ward_name":"西区","capacity":1},"geometry":{"type":"Point","coordinates":[136.880567,35.209396]}},{"type":"Feature","properties":{"poi_id":"poi-098","category":"park","ward_name":"西区","capacity":1},"geometry":{"type":"Point","coordinates":[136.883867,35.205396]}},{"type":"Feature","properties":{"poi_id":"poi-099","category":"supermarket","ward_name":"西区","capacity":1},"geometry":{"type":"Point","coordinates":[136.879367,35.205746]}},{"type":"Feature","properties":{"poi_id":"poi-100","category":"clinic","ward_name":"西区","capacity":1},"geometry":{"type":"Point","coordinates":[136.883667,35.209446]}}]}